{"type": "FeatureCollection", "features": [ {"type": "Feature", "properties": {"norad_id": 33799, "name": "COSMOS 2251 DEB", "group": "cosmos-2251-debris", "lat": 6.171513002411566, "lon": -114.90355854143597, "alt_km": 619.5618123800314, "timestamp": "2025-12-20T07:33:51.205609+00:00", "meta": {"OBJECT_NAME": "COSMOS 2251 DEB", "OBJECT_ID": "1993-036AQ", "EPOCH": "2025-12-19T14:52:34.207104", "MEAN_MOTION": 14.79698147, "ECCENTRICITY": 0.0022784, "INCLINATION": 74.0325, "RA_OF_ASC_NODE": 68.2393, "ARG_OF_PERICENTER": 136.5216, "MEAN_ANOMALY": 294.3275, "EPHEMERIS_TYPE": 0, "CLASSIFICATION_TYPE": "U", "NORAD_CAT_ID": 33799, "ELEMENT_SET_NO": 999, "REV_AT_EPOCH": 88913, "BSTAR": 0.00074895, "MEAN_MOTION_DOT": 5.621e-05, "MEAN_MOTION_DDOT": 0}, "tle": {"line1": "1 33799U 93036AQ  25353.61984036  .00005621  00000+0  74895-3 0  9996", "line2": "2 33799  74.0325  68.2393 0022784 136.5216 294.3275 14.79698147889139"}}, "geometry": {"type": "Point", "coordinates": [-114.90355854143597, 6.171513002411566]}}, {"type": "Feature", "properties": {"norad_id": 33805, "name": "COSMOS 2251 DEB", "group": "cosmos-2251-debris", "lat": 67.2487646762496, "lon": -20.016085192889474, "alt_km": 665.7564973313156, "timestamp": "2025-12-20T07:33:51.205619+00:00", "meta": {"OBJECT_NAME": "COSMOS 2251 DEB", "OBJECT_ID": "1993-036AW", "EPOCH": "2025-12-19T22:59:36.988800", "MEAN_MOTION": 14.57870411, "ECCENTRICITY": 0.0059994, "INCLINATION": 74.0311, "RA_OF_ASC_NODE": 297.5987, "ARG_OF_PERICENTER": 124.4791, "MEAN_ANOMALY": 236.2061, "EPHEMERIS_TYPE": 0, "CLASSIFICATION_TYPE": "U", "NORAD_CAT_ID": 33805, "ELEMENT_SET_NO": 999, "REV_AT_EPOCH": 89332, "BSTAR": 0.00015868261, "MEAN_MOTION_DOT": 7.15e-06, "MEAN_MOTION_DDOT": 0}, "tle": {"line1": "1 33805U 93036AW  25353.95806700  .00000715  00000+0  15868-3 0  9996", "line2": "2 33805  74.0311 297.5987 0059994 124.4791 236.2061 14.57870411893321"}}, "geometry": {"type": "Point", "coordinates": [-20.016085192889474, 67.2487646762496]}}, {"type": "Feature", "properties": {"norad_id": 33811, "name": "COSMOS 2251 DEB", "group": "cosmos-2251-debris", "lat": 21.60415542460162, "lon": 100.34886329071463, "alt_km": 568.2361022218956, "timestamp": "2025-12-20T07:33:51.205630+00:00", "meta": {"OBJECT_NAME": "COSMOS 2251 DEB", "OBJECT_ID": "1993-036BC", "EPOCH": "2025-12-19T21:33:54.581760", "MEAN_MOTION": 15.05465018, "ECCENTRICITY": 0.00309165, "INCLINATION": 73.8372, "RA_OF_ASC_NODE": 287.8079, "ARG_OF_PERICENTER": 7.4994, "MEAN_ANOMALY": 52.6406, "EPHEMERIS_TYPE": 0, "CLASSIFICATION_TYPE": "U", "NORAD_CAT_ID": 33811, "ELEMENT_SET_NO": 999, "REV_AT_EPOCH": 90126, "BSTAR": 0.00070896487, "MEAN_MOTION_DOT": 0.00010268, "MEAN_MOTION_DDOT": 0}, "tle": {"line1": "1 33811U 93036BC  25353.89854840  .00010268  00000+0  70896-3 0  9990", "line2": "2 33811  73.8372 287.8079 0030916   7.4994  52.6406 15.05465018901267"}}, "geometry": {"type": "Point", "coordinates": [100.34886329071463, 21.60415542460162]}}, {"type": "Feature", "properties": {"norad_id": 33815, "name": "COSMOS 2251 DEB", "group": "cosmos-2251-debris", "lat": -54.28847439901015, "lon": 4.254114890402569, "alt_km": 512.1734563218643, "timestamp": "2025-12-20T07:33:51.205641+00:00", "meta": {"OBJECT_NAME": "COSMOS 2251 DEB", "OBJECT_ID": "1993-036BG", "EPOCH": "2025-12-18T22:02:32.918784", "MEAN_MOTION": 15.19619374, "ECCENTRICITY": 0.00014849, "INCLINATION": 73.9513, "RA_OF_ASC_NODE": 163.589, "ARG_OF_PERICENTER": 298.6947, "MEAN_ANOMALY": 220.3914, "EPHEMERIS_TYPE": 0, "CLASSIFICATION_TYPE": "U", "NORAD_CAT_ID": 33815, "ELEMENT_SET_NO": 999, "REV_AT_EPOCH": 88464, "BSTAR": 0.005145232, "MEAN_MOTION_DOT": 0.00111324, "MEAN_MOTION_DDOT": 0}, "tle": {"line1": "1 33815U 93036BG  25352.91843656  .00111324  00000+0  51452-2 0  9990", "line2": "2 33815  73.9513 163.5890 0001484 298.6947 220.3914 15.19619374884641"}}, "geometry": {"type": "Point", "coordinates": [4.254114890402569, -54.28847439901015]}}, {"type": "Feature", "properties": {"norad_id": 33816, "name": "COSMOS 2251 DEB", "group": "cosmos-2251-debris", "lat": -40.491831315975375, "lon": 78.27604770424048, "alt_km": 1123.6877795596056, "timestamp": "2025-12-20T07:33:51.205652+00:00", "meta": {"OBJECT_NAME": "COSMOS 2251 DEB", "OBJECT_ID": "1993-036BH", "EPOCH": "2025-12-19T16:08:15.886176", "MEAN_MOTION": 13.81790801, "ECCENTRICITY": 0.02643508, "INCLINATION": 73.8953, "RA_OF_ASC_NODE": 93.6459, "ARG_OF_PERICENTER": 105.2097, "MEAN_ANOMALY": 257.842, "EPHEMERIS_TYPE": 0, "CLASSIFICATION_TYPE": "U", "NORAD_CAT_ID": 33816, "ELEMENT_SET_NO": 999, "REV_AT_EPOCH": 84769, "BSTAR": 0.00025443517, "MEAN_MOTION_DOT": 3.34e-06, "MEAN_MOTION_DDOT": 0}, "tle": {"line1": "1 33816U 93036BH  25353.67240609  .00000334  00000+0  25444-3 0  9995", "line2": "2 33816  73.8953  93.6459 0264350 105.2097 257.8420 13.81790801847698"}}, "geometry": {"type": "Point", "coordinates": [78.27604770424048, -40.491831315975375]}}, {"type": "Feature", "properties": {"norad_id": 33818, "name": "COSMOS 2251 DEB", "group": "cosmos-2251-debris", "lat": -42.81024213914914, "lon": 135.2414782013826, "alt_km": 550.7148665354707, "timestamp": "2025-12-20T07:33:51.205665+00:00", "meta": {"OBJECT_NAME": "COSMOS 2251 DEB", "OBJECT_ID": "1993-036BK", "EPOCH": "2025-12-19T21:19:19.668576", "MEAN_MOTION": 15.13036734, "ECCENTRICITY": 0.00253866, "INCLINATION": 74.0769, "RA_OF_ASC_NODE": 151.4589, "ARG_OF_PERICENTER": 137.1567, "MEAN_ANOMALY": 14.4457, "EPHEMERIS_TYPE": 0, "CLASSIFICATION_TYPE": "U", "NORAD_CAT_ID": 33818, "ELEMENT_SET_NO": 999, "REV_AT_EPOCH": 89970, "BSTAR": 0.0016857402, "MEAN_MOTION_DOT": 0.00030116, "MEAN_MOTION_DDOT": 0}, "tle": {"line1": "1 33818U 93036BK  25353.88842209  .00030116  00000+0  16857-2 0  9992", "line2": "2 33818  74.0769 151.4589 0025386 137.1567  14.4457 15.13036734899706"}}, "geometry": {"type": "Point", "coordinates": [135.2414782013826, -42.81024213914914]}}, {"type": "Feature", "properties": {"norad_id": 33819, "name": "COSMOS 2251 DEB", "group": "cosmos-2251-debris", "lat": 41.830533054097444, "lon": -149.15336940594085, "alt_km": 717.6949037881823, "timestamp": "2025-12-20T07:33:51.205676+00:00", "meta": {"OBJECT_NAME": "COSMOS 2251 DEB", "OBJECT_ID": "1993-036BL", "EPOCH": "2025-12-19T21:50:59.970048", "MEAN_MOTION": 14.32245657, "ECCENTRICITY": 0.00893419, "INCLINATION": 74.1776, "RA_OF_ASC_NODE": 196.875, "ARG_OF_PERICENTER": 56.036, "MEAN_ANOMALY": 61.9952, "EPHEMERIS_TYPE": 0, "CLASSIFICATION_TYPE": "U", "NORAD_CAT_ID": 33819, "ELEMENT_SET_NO": 999, "REV_AT_EPOCH": 87598, "BSTAR": 0.00042285349, "MEAN_MOTION_DOT": 1.167e-05, "MEAN_MOTION_DDOT": 0}, "tle": {"line1": "1 33819U 93036BL  25353.91041632  .00001167  00000+0  42285-3 0  9997", "line2": "2 33819  74.1776 196.8750 0089341  56.0360  61.9952 14.32245657875987"}}, "geometry": {"type": "Point", "coordinates": [-149.15336940594085, 41.830533054097444]}}, {"type": "Feature", "properties": {"norad_id": 33821, "name": "COSMOS 2251 DEB", "group": "cosmos-2251-debris", "lat": 69.02945244453834, "lon": -101.5318312628891, "alt_km": 461.2130675892504, "timestamp": "2025-12-20T07:33:51.205687+00:00", "meta": {"OBJECT_NAME": "COSMOS 2251 DEB", "OBJECT_ID": "1993-036BN", "EPOCH": "2025-12-19T15:22:23.382624", "MEAN_MOTION": 15.25721215, "ECCENTRICITY": 0.0050333, "INCLINATION": 74.0299, "RA_OF_ASC_NODE": 128.2428, "ARG_OF_PERICENTER": 159.6904, "MEAN_ANOMALY": 200.6314, "EPHEMERIS_TYPE": 0, "CLASSIFICATION_TYPE": "U", "NORAD_CAT_ID": 33821, "ELEMENT_SET_NO": 999, "REV_AT_EPOCH": 75106, "BSTAR": 0.00087428, "MEAN_MOTION_DOT": 0.00023154, "MEAN_MOTION_DDOT": 0}, "tle": {"line1": "1 33821U 93036BN  25353.64054841  .00023154  00000+0  87428-3 0  9994", "line2": "2 33821  74.0299 128.2428 0050333 159.6904 200.6314 15.25721215751061"}}, "geometry": {"type": "Point", "coordinates": [-101.5318312628891, 69.02945244453834]}}, {"type": "Feature", "properties": {"norad_id": 33822, "name": "COSMOS 2251 DEB", "group": "cosmos-2251-debris", "lat": 63.45775818248647, "lon": -144.81084245838622, "alt_km": 943.1200554382312, "timestamp": "2025-12-20T07:33:51.205697+00:00", "meta": {"OBJECT_NAME": "COSMOS 2251 DEB", "OBJECT_ID": "1993-036BP", "EPOCH": "2025-12-19T23:28:11.226144", "MEAN_MOTION": 14.13102659, "ECCENTRICITY": 0.01529233, "INCLINATION": 74.0676, "RA_OF_ASC_NODE": 180.9038, "ARG_OF_PERICENTER": 225.4594, "MEAN_ANOMALY": 288.7225, "EPHEMERIS_TYPE": 0, "CLASSIFICATION_TYPE": "U", "NORAD_CAT_ID": 33822, "ELEMENT_SET_NO": 999, "REV_AT_EPOCH": 86156, "BSTAR": 0.00089599017, "MEAN_MOTION_DOT": 1.846e-05, "MEAN_MOTION_DDOT": 0}, "tle": {"line1": "1 33822U 93036BP  25353.97790771  .00001846  00000+0  89599-3 0  9995", "line2": "2 33822  74.0676 180.9038 0152923 225.4594 288.7225 14.13102659861564"}}, "geometry": {"type": "Point", "coordinates": [-144.81084245838622, 63.45775818248647]}}, {"type": "Feature", "properties": {"norad_id": 33823, "name": "COSMOS 2251 DEB", "group": "cosmos-2251-debris", "lat": -43.138625565404276, "lon": -28.148540964140423, "alt_km": 777.3141705239914, "timestamp": "2025-12-20T07:33:51.205707+00:00", "meta": {"OBJECT_NAME": "COSMOS 2251 DEB", "OBJECT_ID": "1993-036BQ", "EPOCH": "2025-12-19T18:47:19.256064", "MEAN_MOTION": 13.98966342, "ECCENTRICITY": 0.02093966, "INCLINATION": 73.8095, "RA_OF_ASC_NODE": 136.9865, "ARG_OF_PERICENTER": 261.0165, "MEAN_ANOMALY": 165.7872, "EPHEMERIS_TYPE": 0, "CLASSIFICATION_TYPE": "U", "NORAD_CAT_ID": 33823, "ELEMENT_SET_NO": 999, "REV_AT_EPOCH": 85708, "BSTAR": 0.00054768877, "MEAN_MOTION_DOT": 9.28e-06, "MEAN_MOTION_DDOT": 0}, "tle": {"line1": "1 33823U 93036BQ  25353.78286176  .00000928  00000+0  54769-3 0  9995", "line2": "2 33823  73.8095 136.9865 0209396 261.0165 165.7872 13.98966342857086"}}, "geometry": {"type": "Point", "coordinates": [-28.148540964140423, -43.138625565404276]}}]}